{"type": "FeatureCollection", "features": [ {"type": "Feature", "properties": {"norad_id": 37216, "name": "COSMO-SKYMED 4", "group": "resource", "lat": 36.66483116873986, "lon": -0.03871236466751986, "alt_km": 619.5559797438527, "timestamp": "2025-12-18T19:29:52.199889+00:00", "meta": {"OBJECT_NAME": "COSMO-SKYMED 4", "OBJECT_ID": "2010-060A", "EPOCH": "2025-12-18T07:30:49.808736", "MEAN_MOTION": 14.82149571, "ECCENTRICITY": 0.00013817, "INCLINATION": 97.88, "RA_OF_ASC_NODE": 173.5519, "ARG_OF_PERICENTER": 80.803, "MEAN_ANOMALY": 279.334, "EPHEMERIS_TYPE": 0, "CLASSIFICATION_TYPE": "U", "NORAD_CAT_ID": 37216, "ELEMENT_SET_NO": 999, "REV_AT_EPOCH": 81777, "BSTAR": 5.188893e-06, "MEAN_MOTION_DOT": -1.1e-07, "MEAN_MOTION_DDOT": 0}, "tle": {"line1": "1 37216U 10060A   25352.31307649 -.00000011  00000+0  51889-5 0  9994", "line2": "2 37216  97.8800 173.5519 0001381  80.8030 279.3340 14.82149571817776"}}, "geometry": {"type": "Point", "coordinates": [-0.03871236466751986, 36.66483116873986]}}, {"type": "Feature", "properties": {"norad_id": 37387, "name": "RESOURCESAT-2", "group": "resource", "lat": -45.63115685490944, "lon": -132.7611368475489, "alt_km": 830.8309847380278, "timestamp": "2025-12-18T19:29:52.199899+00:00", "meta": {"OBJECT_NAME": "RESOURCESAT-2", "OBJECT_ID": "2011-015A", "EPOCH": "2025-12-18T06:36:45.038592", "MEAN_MOTION": 14.21599458, "ECCENTRICITY": 0.00061775, "INCLINATION": 98.7871, "RA_OF_ASC_NODE": 55.8024, "ARG_OF_PERICENTER": 27.8312, "MEAN_ANOMALY": 332.3195, "EPHEMERIS_TYPE": 0, "CLASSIFICATION_TYPE": "U", "NORAD_CAT_ID": 37387, "ELEMENT_SET_NO": 999, "REV_AT_EPOCH": 76047, "BSTAR": 7.4221033e-05, "MEAN_MOTION_DOT": 1.18e-06, "MEAN_MOTION_DDOT": 0}, "tle": {"line1": "1 37387U 11015A   25352.27552128  .00000118  00000+0  74221-4 0  9994", "line2": "2 37387  98.7871  55.8024 0006177  27.8312 332.3195 14.21599458760476"}}, "geometry": {"type": "Point", "coordinates": [-132.7611368475489, -45.63115685490944]}}, {"type": "Feature", "properties": {"norad_id": 37781, "name": "HAIYANG-2A", "group": "resource", "lat": 59.35303178237017, "lon": -22.468348986932778, "alt_km": 961.0485175834301, "timestamp": "2025-12-18T19:29:52.199910+00:00", "meta": {"OBJECT_NAME": "HAIYANG-2A", "OBJECT_ID": "2011-043A", "EPOCH": "2025-12-18T07:00:50.347296", "MEAN_MOTION": 13.78834656, "ECCENTRICITY": 0.00016313, "INCLINATION": 99.3374, "RA_OF_ASC_NODE": 353.1414, "ARG_OF_PERICENTER": 76.3363, "MEAN_ANOMALY": 283.797, "EPHEMERIS_TYPE": 0, "CLASSIFICATION_TYPE": "U", "NORAD_CAT_ID": 37781, "ELEMENT_SET_NO": 999, "REV_AT_EPOCH": 72175, "BSTAR": -0.00024025263, "MEAN_MOTION_DOT": -2.89e-06, "MEAN_MOTION_DDOT": 0}, "tle": {"line1": "1 37781U 11043A   25352.29224939 -.00000289  00000+0 -24025-3 0  9998", "line2": "2 37781  99.3374 353.1414 0001631  76.3363 283.7970 13.78834656721752"}}, "geometry": {"type": "Point", "coordinates": [-22.468348986932778, 59.35303178237017]}}, {"type": "Feature", "properties": {"norad_id": 37791, "name": "RASAT", "group": "resource", "lat": -38.296972077682064, "lon": 88.40884256312854, "alt_km": 672.8565526884404, "timestamp": "2025-12-18T19:29:52.199920+00:00", "meta": {"OBJECT_NAME": "RASAT", "OBJECT_ID": "2011-044D", "EPOCH": "2025-12-18T06:55:56.502624", "MEAN_MOTION": 14.67917167, "ECCENTRICITY": 0.00216699, "INCLINATION": 98.0649, "RA_OF_ASC_NODE": 81.4644, "ARG_OF_PERICENTER": 48.2233, "MEAN_ANOMALY": 28.2714, "EPHEMERIS_TYPE": 0, "CLASSIFICATION_TYPE": "U", "NORAD_CAT_ID": 37791, "ELEMENT_SET_NO": 999, "REV_AT_EPOCH": 76664, "BSTAR": 8.8501083e-05, "MEAN_MOTION_DOT": 4.59e-06, "MEAN_MOTION_DDOT": 0}, "tle": {"line1": "1 37791U 11044D   25352.28884841  .00000459  00000+0  88501-4 0  9990", "line2": "2 37791  98.0649  81.4644 0021669  48.2233  28.2714 14.67917167766640"}}, "geometry": {"type": "Point", "coordinates": [88.40884256312854, -38.296972077682064]}}, {"type": "Feature", "properties": {"norad_id": 37841, "name": "SRMSAT", "group": "resource", "lat": 12.456470241103482, "lon": 108.66376150159934, "alt_km": 841.9896481335109, "timestamp": "2025-12-18T19:29:52.199930+00:00", "meta": {"OBJECT_NAME": "SRMSAT", "OBJECT_ID": "2011-058D", "EPOCH": "2025-12-17T14:36:14.562432", "MEAN_MOTION": 14.11513105, "ECCENTRICITY": 0.0011885, "INCLINATION": 19.972, "RA_OF_ASC_NODE": 78.4836, "ARG_OF_PERICENTER": 7.0463, "MEAN_ANOMALY": 21.298, "EPHEMERIS_TYPE": 0, "CLASSIFICATION_TYPE": "U", "NORAD_CAT_ID": 37841, "ELEMENT_SET_NO": 999, "REV_AT_EPOCH": 73213, "BSTAR": 7.3050656e-05, "MEAN_MOTION_DOT": 3.99e-06, "MEAN_MOTION_DDOT": 0}, "tle": {"line1": "1 37841U 11058D   25351.60850188  .00000399  00000+0  73051-4 0  9990", "line2": "2 37841  19.9720  78.4836 0011885   7.0463  21.2980 14.11513105732132"}}, "geometry": {"type": "Point", "coordinates": [108.66376150159934, 12.456470241103482]}}, {"type": "Feature", "properties": {"norad_id": 38012, "name": "PLEIADES 1A", "group": "resource", "lat": -81.39270549997188, "lon": 137.39480470007513, "alt_km": 705.9124148609362, "timestamp": "2025-12-18T19:29:52.199941+00:00", "meta": {"OBJECT_NAME": "PLEIADES 1A", "OBJECT_ID": "2011-076F", "EPOCH": "2025-12-18T07:03:05.778432", "MEAN_MOTION": 14.58566628, "ECCENTRICITY": 0.00011556, "INCLINATION": 98.1823, "RA_OF_ASC_NODE": 64.9769, "ARG_OF_PERICENTER": 72.8468, "MEAN_ANOMALY": 358.3939, "EPHEMERIS_TYPE": 0, "CLASSIFICATION_TYPE": "U", "NORAD_CAT_ID": 38012, "ELEMENT_SET_NO": 999, "REV_AT_EPOCH": 74562, "BSTAR": 8.2103614e-05, "MEAN_MOTION_DOT": 3.36e-06, "MEAN_MOTION_DDOT": 0}, "tle": {"line1": "1 38012U 11076F   25352.29381688  .00000336  00000+0  82104-4 0  9991", "line2": "2 38012  98.1823  64.9769 0001155  72.8468 358.3939 14.58566628745620"}}, "geometry": {"type": "Point", "coordinates": [137.39480470007513, -81.39270549997188]}}, {"type": "Feature", "properties": {"norad_id": 38038, "name": "ZIYUAN 1-02C (ZY 1-02C)", "group": "resource", "lat": 81.34250950506883, "lon": -44.29013822353352, "alt_km": 753.0497637383605, "timestamp": "2025-12-18T19:29:52.199951+00:00", "meta": {"OBJECT_NAME": "ZIYUAN 1-02C (ZY 1-02C)", "OBJECT_ID": "2011-079A", "EPOCH": "2025-12-18T07:43:55.284096", "MEAN_MOTION": 14.38018434, "ECCENTRICITY": 0.00073734, "INCLINATION": 98.4333, "RA_OF_ASC_NODE": 58.2332, "ARG_OF_PERICENTER": 123.7897, "MEAN_ANOMALY": 311.7383, "EPHEMERIS_TYPE": 0, "CLASSIFICATION_TYPE": "U", "NORAD_CAT_ID": 38038, "ELEMENT_SET_NO": 999, "REV_AT_EPOCH": 73321, "BSTAR": 0.00015966053, "MEAN_MOTION_DOT": 4.4e-06, "MEAN_MOTION_DDOT": 0}, "tle": {"line1": "1 38038U 11079A   25352.32216764  .00000440  00000+0  15966-3 0  9995", "line2": "2 38038  98.4333  58.2332 0007373 123.7897 311.7383 14.38018434733212"}}, "geometry": {"type": "Point", "coordinates": [-44.29013822353352, 81.34250950506883]}}, {"type": "Feature", "properties": {"norad_id": 38338, "name": "ARIRANG-3 (KOMPSAT-3)", "group": "resource", "lat": -58.009526146212835, "lon": 113.87684183131324, "alt_km": 694.0470569088193, "timestamp": "2025-12-18T19:29:52.199961+00:00", "meta": {"OBJECT_NAME": "ARIRANG-3 (KOMPSAT-3)", "OBJECT_ID": "2012-025B", "EPOCH": "2025-12-18T06:54:26.801280", "MEAN_MOTION": 14.61719985, "ECCENTRICITY": 0.00050107, "INCLINATION": 98.333, "RA_OF_ASC_NODE": 306.9191, "ARG_OF_PERICENTER": 319.6903, "MEAN_ANOMALY": 40.3925, "EPHEMERIS_TYPE": 0, "CLASSIFICATION_TYPE": "U", "NORAD_CAT_ID": 38338, "ELEMENT_SET_NO": 999, "REV_AT_EPOCH": 72491, "BSTAR": 9.8409965e-05, "MEAN_MOTION_DOT": 4.42e-06, "MEAN_MOTION_DDOT": 0}, "tle": {"line1": "1 38338U 12025B   25352.28781020  .00000442  00000+0  98410-4 0  9995", "line2": "2 38338  98.3330 306.9191 0005010 319.6903  40.3925 14.61719985724916"}}, "geometry": {"type": "Point", "coordinates": [113.87684183131324, -58.009526146212835]}}, {"type": "Feature", "properties": {"norad_id": 38709, "name": "EXACTVIEW-1 (ADS-1B)", "group": "resource", "lat": 26.020090696333043, "lon": -74.25130928453996, "alt_km": 815.2977736545872, "timestamp": "2025-12-18T19:29:52.199972+00:00", "meta": {"OBJECT_NAME": "EXACTVIEW-1 (ADS-1B)", "OBJECT_ID": "2012-039C", "EPOCH": "2025-12-18T06:58:57.463968", "MEAN_MOTION": 14.24910205, "ECCENTRICITY": 0.00103924, "INCLINATION": 98.9637, "RA_OF_ASC_NODE": 100.7974, "ARG_OF_PERICENTER": 337.8294, "MEAN_ANOMALY": 22.2434, "EPHEMERIS_TYPE": 0, "CLASSIFICATION_TYPE": "U", "NORAD_CAT_ID": 38709, "ELEMENT_SET_NO": 999, "REV_AT_EPOCH": 69694, "BSTAR": 6.6165592e-05, "MEAN_MOTION_DOT": 1.08e-06, "MEAN_MOTION_DDOT": 0}, "tle": {"line1": "1 38709U 12039C   25352.29094287  .00000108  00000+0  66166-4 0  9997", "line2": "2 38709  98.9637 100.7974 0010392 337.8294  22.2434 14.24910205696949"}}, "geometry": {"type": "Point", "coordinates": [-74.25130928453996, 26.020090696333043]}}, {"type": "Feature", "properties": {"norad_id": 38755, "name": "SPOT 6", "group": "resource", "lat": -16.61422978123316, "lon": -124.96744141864852, "alt_km": 703.2273979448473, "timestamp": "2025-12-18T19:29:52.199982+00:00", "meta": {"OBJECT_NAME": "SPOT 6", "OBJECT_ID": "2012-047A", "EPOCH": "2025-12-18T07:04:25.726944", "MEAN_MOTION": 14.58537518, "ECCENTRICITY": 0.00013204, "INCLINATION": 98.1571, "RA_OF_ASC_NODE": 56.9774, "ARG_OF_PERICENTER": 78.8894, "MEAN_ANOMALY": 281.2454, "EPHEMERIS_TYPE": 0, "CLASSIFICATION_TYPE": "U", "NORAD_CAT_ID": 38755, "ELEMENT_SET_NO": 999, "REV_AT_EPOCH": 70668, "BSTAR": 7.0621767e-05, "MEAN_MOTION_DOT": 2.83e-06, "MEAN_MOTION_DDOT": 0}, "tle": {"line1": "1 38755U 12047A   25352.29474221  .00000283  00000+0  70622-4 0  9993", "line2": "2 38755  98.1571  56.9774 0001320  78.8894 281.2454 14.58537518706689"}}, "geometry": {"type": "Point", "coordinates": [-124.96744141864852, -16.61422978123316]}}]}